{
  "type": "FeatureCollection",
  "features": [
    {
      "type": "Feature",
      "properties": {
        "norad_id": 41866,
        "name": "GOES 16",
        "group": "weather",
        "lat": 0.023737503849375282,
        "lon": 104.69839196627441,
        "alt_km": 35797.93391859752,
        "timestamp": "2025-12-25T07:41:09.366300+00:00",
        "meta_object_name": "GOES 16",
        "meta_object_id": "2016-071A",
        "meta_epoch": "2025-12-24T12:07:46.794144",
        "meta_mean_motion": 1.00273928,
        "meta_eccentricity": 0.00030223,
        "meta_inclination": 0.0751,
        "meta_ra_of_asc_node": 101.9123,
        "meta_arg_of_pericenter": 169.4084,
        "meta_mean_anomaly": 259.2386,
        "meta_ephemeris_type": 0,
        "meta_classification_type": "U",
        "meta_norad_cat_id": 41866,
        "meta_element_set_no": 999,
        "meta_rev_at_epoch": 3335,
        "meta_bstar": 0,
        "meta_mean_motion_dot": -7e-07,
        "meta_mean_motion_ddot": 0,
        "tle_line1": "1 41866U 16071A   25358.50540271 -.00000070  00000+0  00000+0 0  9993",
        "tle_line2": "2 41866   0.0751 101.9123 0003022 169.4084 259.2386  1.00273928 33357"
      },
      "geometry": {
        "type": "Point",
        "coordinates": [
          104.69839196627441,
          0.023737503849375282
        ]
      }
    },
    {
      "type": "Feature",
      "properties": {
        "norad_id": 41882,
        "name": "FENGYUN 4A",
        "group": "weather",
        "lat": -1.7879303012992005,
        "lon": -26.988743132991026,
        "alt_km": 35794.375464950775,
        "timestamp": "2025-12-25T07:41:09.366311+00:00",
        "meta_object_name": "FENGYUN 4A",
        "meta_object_id": "2016-077A",
        "meta_epoch": "2025-12-24T22:14:48.511104",
        "meta_mean_motion": 1.00263343,
        "meta_eccentricity": 0.00044942,
        "meta_inclination": 1.878,
        "meta_ra_of_asc_node": 82.2718,
        "meta_arg_of_pericenter": 143.1707,
        "meta_mean_anomaly": 325.5712,
        "meta_ephemeris_type": 0,
        "meta_classification_type": "U",
        "meta_norad_cat_id": 41882,
        "meta_element_set_no": 999,
        "meta_rev_at_epoch": 3318,
        "meta_bstar": 0,
        "meta_mean_motion_dot": -3.37e-06,
        "meta_mean_motion_ddot": 0,
        "tle_line1": "1 41882U 16077A   25358.92695036 -.00000337  00000+0  00000+0 0  9999",
        "tle_line2": "2 41882   1.8780  82.2718 0004494 143.1707 325.5712  1.00263343 33183"
      },
      "geometry": {
        "type": "Point",
        "coordinates": [
          -26.988743132991026,
          -1.7879303012992005
        ]
      }
    },
    {
      "type": "Feature",
      "properties": {
        "norad_id": 41884,
        "name": "CYGFM05",
        "group": "weather",
        "lat": 12.987787682125516,
        "lon": -15.798930477829249,
        "alt_km": 419.4549328129706,
        "timestamp": "2025-12-25T07:41:09.366322+00:00",
        "meta_object_name": "CYGFM05",
        "meta_object_id": "2016-078A",
        "meta_epoch": "2025-12-24T14:33:43.495488",
        "meta_mean_motion": 15.48073343,
        "meta_eccentricity": 0.00106298,
        "meta_inclination": 34.9606,
        "meta_ra_of_asc_node": 329.5892,
        "meta_arg_of_pericenter": 285.346,
        "meta_mean_anomaly": 74.6087,
        "meta_ephemeris_type": 0,
        "meta_classification_type": "U",
        "meta_norad_cat_id": 41884,
        "meta_element_set_no": 999,
        "meta_rev_at_epoch": 50160,
        "meta_bstar": 0.00039126691,
        "meta_mean_motion_dot": 0.00021189,
        "meta_mean_motion_ddot": 0,
        "tle_line1": "1 41884U 16078A   25358.60675342  .00021189  00000+0  39127-3 0  9998",
        "tle_line2": "2 41884  34.9606 329.5892 0010629 285.3460  74.6087 15.48073343501601"
      },
      "geometry": {
        "type": "Point",
        "coordinates": [
          -15.798930477829249,
          12.987787682125516
        ]
      }
    },
    {
      "type": "Feature",
      "properties": {
        "norad_id": 41885,
        "name": "CYGFM04",
        "group": "weather",
        "lat": 15.48736240778356,
        "lon": -37.27665884625731,
        "alt_km": 408.79154000713515,
        "timestamp": "2025-12-25T07:41:09.366333+00:00",
        "meta_object_name": "CYGFM04",
        "meta_object_id": "2016-078B",
        "meta_epoch": "2025-12-24T22:17:50.660448",
        "meta_mean_motion": 15.50876789,
        "meta_eccentricity": 0.00091647,
        "meta_inclination": 34.935,
        "meta_ra_of_asc_node": 301.9035,
        "meta_arg_of_pericenter": 312.7031,
        "meta_mean_anomaly": 47.2919,
        "meta_ephemeris_type": 0,
        "meta_classification_type": "U",
        "meta_norad_cat_id": 41885,
        "meta_element_set_no": 999,
        "meta_rev_at_epoch": 50183,
        "meta_bstar": 0.00038974891,
        "meta_mean_motion_dot": 0.00023306,
        "meta_mean_motion_ddot": 0,
        "tle_line1": "1 41885U 16078B   25358.92905857  .00023306  00000+0  38975-3 0  9994",
        "tle_line2": "2 41885  34.9350 301.9035 0009164 312.7031  47.2919 15.50876789501835"
      },
      "geometry": {
        "type": "Point",
        "coordinates": [
          -37.27665884625731,
          15.48736240778356
        ]
      }
    },
    {
      "type": "Feature",
      "properties": {
        "norad_id": 41886,
        "name": "CYGFM02",
        "group": "weather",
        "lat": 33.67102679432522,
        "lon": 44.92571040920795,
        "alt_km": 409.81405439757145,
        "timestamp": "2025-12-25T07:41:09.366344+00:00",
        "meta_object_name": "CYGFM02",
        "meta_object_id": "2016-078C",
        "meta_epoch": "2025-12-24T21:58:39.424512",
        "meta_mean_motion": 15.52292842,
        "meta_eccentricity": 0.00107792,
        "meta_inclination": 34.9438,
        "meta_ra_of_asc_node": 300.1575,
        "meta_arg_of_pericenter": 314.0871,
        "meta_mean_anomaly": 45.8964,
        "meta_ephemeris_type": 0,
        "meta_classification_type": "U",
        "meta_norad_cat_id": 41886,
        "meta_element_set_no": 999,
        "meta_rev_at_epoch": 50196,
        "meta_bstar": 0.00040835072,
        "meta_mean_motion_dot": 0.00025722,
        "meta_mean_motion_ddot": 0,
        "tle_line1": "1 41886U 16078C   25358.91573408  .00025722  00000+0  40835-3 0  9999",
        "tle_line2": "2 41886  34.9438 300.1575 0010779 314.0871  45.8964 15.52292842501966"
      },
      "geometry": {
        "type": "Point",
        "coordinates": [
          44.92571040920795,
          33.67102679432522
        ]
      }
    },
    {
      "type": "Feature",
      "properties": {
        "norad_id": 41887,
        "name": "CYGFM01",
        "group": "weather",
        "lat": 34.826834974671904,
        "lon": 62.06687100933912,
        "alt_km": 421.0389875486753,
        "timestamp": "2025-12-25T07:41:09.366354+00:00",
        "meta_object_name": "CYGFM01",
        "meta_object_id": "2016-078D",
        "meta_epoch": "2025-12-24T08:04:31.386432",
        "meta_mean_motion": 15.48653948,
        "meta_eccentricity": 0.00104192,
        "meta_inclination": 34.9437,
        "meta_ra_of_asc_node": 333.6229,
        "meta_arg_of_pericenter": 275.7216,
        "meta_mean_anomaly": 84.2318,
        "meta_ephemeris_type": 0,
        "meta_classification_type": "U",
        "meta_norad_cat_id": 41887,
        "meta_element_set_no": 999,
        "meta_rev_at_epoch": 50150,
        "meta_bstar": 0.00040604165,
        "meta_mean_motion_dot": 0.00022447,
        "meta_mean_motion_ddot": 0,
        "tle_line1": "1 41887U 16078D   25358.33647438  .00022447  00000+0  40604-3 0  9996",
        "tle_line2": "2 41887  34.9437 333.6229 0010419 275.7216  84.2318 15.48653948501503"
      },
      "geometry": {
        "type": "Point",
        "coordinates": [
          62.06687100933912,
          34.826834974671904
        ]
      }
    },
    {
      "type": "Feature",
      "properties": {
        "norad_id": 41888,
        "name": "CYGFM08",
        "group": "weather",
        "lat": -10.114037143198697,
        "lon": 144.82876397157375,
        "alt_km": 419.65663360882536,
        "timestamp": "2025-12-25T07:41:09.366366+00:00",
        "meta_object_name": "CYGFM08",
        "meta_object_id": "2016-078E",
        "meta_epoch": "2025-12-24T21:33:38.998656",
        "meta_mean_motion": 15.49916891,
        "meta_eccentricity": 0.00115017,
        "meta_inclination": 34.9462,
        "meta_ra_of_asc_node": 312.7945,
        "meta_arg_of_pericenter": 303.6657,
        "meta_mean_anomaly": 56.2968,
        "meta_ephemeris_type": 0,
        "meta_classification_type": "U",
        "meta_norad_cat_id": 41888,
        "meta_element_set_no": 999,
        "meta_rev_at_epoch": 50182,
        "meta_bstar": 0.00039584074,
        "meta_mean_motion_dot": 0.00022895,
        "meta_mean_motion_ddot": 0,
        "tle_line1": "1 41888U 16078E   25358.89836804  .00022895  00000+0  39584-3 0  9997",
        "tle_line2": "2 41888  34.9462 312.7945 0011501 303.6657  56.2968 15.49916891501823"
      },
      "geometry": {
        "type": "Point",
        "coordinates": [
          144.82876397157375,
          -10.114037143198697
        ]
      }
    }
  ]
}